{
  "norad_id": 53629,
  "name": "STARLINK-4602",
  "history": [
    {
      "epoch": "2026-03-28T20:38:52.374624Z",
      "apogee_km": 540.7040935328541,
      "perigee_km": 538.7693026169773,
      "latitude_deg": -2.2901827744995373e-05,
      "longitude_deg": 11.74714108518785,
      "height_km": 540.6648867016777,
      "semi_major_axis_km": 6917.873698074915,
      "eccentricity": 0.00013984,
      "inclination_deg": 53.2166,
      "raan_deg": 147.7401,
      "arg_perigee_deg": 91.9321,
      "mean_anomaly_deg": 268.1831,
      "mean_motion_rev_day": 15.08842189
    }
  ]
}